OBJECT_NAME,OBJECT_ID,EPOCH,MEAN_MOTION,ECCENTRICITY,INCLINATION,RA_OF_ASC_NODE,ARG_OF_PERICENTER,MEAN_ANOMALY,EPHEMERIS_TYPE,CLASSIFICATION_TYPE,NORAD_CAT_ID,ELEMENT_SET_NO,REV_AT_EPOCH,BSTAR,MEAN_MOTION_DOT,MEAN_MOTION_DDOT
GAOFEN-11 01,2018-063A,2026-07-24T06:50:10.564800,15.56293683,.00042472,97.1269,272.0808,166.1336,194.0037,0,U,43585,999,44611,.28652665E-3,.20071E-3,0
ICESAT-2,2018-070A,2026-07-24T06:46:08.884128,15.28304949,.00044283,92.0086,301.0037,37.3900,322.7656,0,U,43613,999,43812,.42189774E-3,.11633E-3,0
HYSIS,2018-096A,2026-07-24T07:04:33.044160,14.78626541,.00016567,97.9822,271.7480,73.5382,286.6011,0,U,43719,999,41290,.20218924E-3,.1429E-4,0
KAZSTSAT,2018-099AB,2026-07-24T07:44:38.056416,14.99963166,.00072304,97.4299,235.5793,301.9085,58.1436,0,U,43783,999,41687,.37000652E-4,.404E-5,0
SAUDISAT 5A,2018-102A,2026-07-24T06:58:19.594848,15.28395883,.00095271,97.3048,266.1597,13.6340,346.5156,0,U,43831,999,42134,.24998865E-3,.6847E-4,0
SAUDISAT 5B,2018-102C,2026-07-24T07:16:48.257184,15.28635198,.0010308,97.3157,269.3093,14.9806,345.1737,0,U,43833,999,42146,.23810247E-3,.6567E-4,0
GAOFEN-10R,2019-066A,2026-07-24T07:54:40.296384,14.83074136,.00063226,98.0520,159.1832,27.8832,332.2719,0,U,44622,999,36788,.16761641E-3,.131E-4,0
CARTOSAT-3,2019-081A,2026-07-24T07:18:35.625600,15.19231268,.00121585,97.4288,266.5686,30.0636,330.1294,0,U,44804,999,36910,.13792539E-3,.2842E-4,0
GAOFEN-12 01,2019-082A,2026-07-24T07:41:13.806816,14.80485598,.00006184,97.8115,210.7220,80.9701,279.1581,0,U,44819,999,35958,.62720358E-4,.429E-5,0
CSG-1,2019-092A,2026-07-24T05:59:29.397120,14.82163029,.00014811,97.8900,28.3179,94.7956,265.3426,0,U,44873,999,35696,.63341082E-4,.452E-5,0
NEMO-HD,2020-061F,2026-07-24T07:22:32.910240,15.45296596,.00011692,97.1900,266.8981,121.1805,238.9559,0,U,46277,999,32771,.29722692E-3,.14076E-3,0
SENTINEL-6A,2020-086A,2026-07-23T22:29:44.664000,12.80930300,.00077771,66.0410,58.7221,269.5572,90.4552,0,U,46984,999,26503,.40372519E-4,-.52E-6,0
CAS500-1,2021-022A,2026-07-24T07:40:36.962400,15.20155013,.00060373,97.3854,99.8122,140.9472,219.2200,0,U,47932,999,29640,.40888601E-3,.8786E-4,0
GAOFEN-12 02,2021-026A,2026-07-24T06:25:34.903776,14.80321817,.00062311,97.9947,203.3004,109.0834,251.1053,0,U,48079,999,28724,.61156844E-4,.413E-5,0
PLEIADES NEO 3,2021-034A,2026-07-23T12:26:04.576992,14.81670344,.0001349,97.8942,278.7624,101.3678,258.7687,0,U,48268,999,28303,.15281E-3,.1151E-4,0
PLEIADES NEO 4,2021-073E,2026-07-23T16:29:08.376000,14.81675971,.00013918,97.8935,278.9245,97.5672,262.5699,0,U,49070,999,26677,.13483145E-3,.1009E-4,0
LANDSAT 9,2021-088A,2026-07-24T05:01:53.568192,14.57100530,.00010849,98.2262,274.9353,94.9707,265.1615,0,U,49260,999,25639,.80893415E-4,.319E-5,0
CSG-2,2022-008A,2026-07-24T06:48:05.429088,14.82152377,.00015713,97.8905,28.3448,88.6932,271.4461,0,U,51444,999,24208,.86772131E-4,.639E-5,0
GAOFEN-12 03,2022-069A,2026-07-24T07:17:41.546976,14.80085625,.00022322,97.8229,92.2302,62.9767,297.1673,0,U,52912,999,22010,.99724294E-4,.705E-5,0
SWOT,2022-173A,2026-07-24T06:53:46.621824,14.00169712,.00002158,77.6120,345.2242,75.1936,284.9240,0,U,54754,999,18434,.51734456E-4,.74E-6,0
GAOFEN-12 04,2023-123A,2026-07-24T07:48:41.514336,14.79789524,.00029792,97.9098,122.7852,30.6180,329.5205,0,U,57654,999,15812,.14749061E-3,.1058E-4,0
PARS 1,2024-039Q,2026-07-24T06:29:05.940096,15.46451773,.00085194,97.4845,187.3833,354.5776,5.5380,0,U,59065,999,13437,.29831635E-3,.14713E-3,0
RESURS-P 4,2024-061A,2026-07-24T07:00:30.195360,15.32323483,.00031608,97.2758,152.5522,76.8374,283.3221,0,U,59371,999,12944,.12554734E-3,.3842E-4,0
LEGION 1,2024-081A,2026-07-24T05:40:44.851872,15.16892174,.00080488,97.5004,282.7008,232.2545,127.7959,0,U,59625,999,12315,.23790095E-3,.4622E-4,0
LEGION 2,2024-081B,2026-07-24T06:24:41.136192,15.16872899,.00109685,97.5004,282.8276,199.3198,160.7621,0,U,59626,999,12316,.20482367E-3,.397E-4,0
ALOS-4 (DAICHI-4),2024-123A,2026-07-23T21:11:44.926368,14.79477813,.00015774,97.9222,301.5322,97.9588,262.1803,0,U,60182,999,11130,.18621593E-3,.134E-4,0
LEGION 3,2024-146A,2026-07-24T05:37:18.154560,15.15699047,.00071767,44.9997,191.9365,25.0906,335.0320,0,U,60452,999,10764,.2332938E-3,.4259E-4,0
LEGION 4,2024-146B,2026-07-24T05:36:38.295648,15.15735410,.0009698,45.0020,283.8063,168.9882,191.1210,0,U,60453,999,10649,.23640003E-3,.4325E-4,0
SENTINEL-2C,2024-157A,2026-07-24T03:58:25.521888,14.30817684,.00010661,98.5677,279.4215,109.2521,250.8778,0,U,60989,999,9827,.51849354E-4,.92E-6,0
IONOSFERA-M 1,2024-199A,2026-07-24T06:07:52.708224,14.22760445,.00019981,98.7123,78.0277,60.5193,299.6184,0,U,61735,999,13297,.33655249E-4,.31E-6,0
