GAOFEN-11 01            
1 43585U 18063A   26205.28484450  .00020071  00000+0  28653-3 0  9999
2 43585  97.1269 272.0808 0004247 166.1336 194.0037 15.56293683446119
ICESAT-2                
1 43613U 18070A   26205.28204727  .00011633  00000+0  42190-3 0  9992
2 43613  92.0086 301.0037 0004428  37.3900 322.7656 15.28304949438122
HYSIS                   
1 43719U 18096A   26205.29482690  .00001429  00000+0  20219-3 0  9995
2 43719  97.9822 271.7480 0001656  73.5382 286.6011 14.78626541412902
KAZSTSAT                
1 43783U 18099AB  26205.32266269  .00000404  00000+0  37001-4 0  9995
2 43783  97.4299 235.5793 0007230 301.9085  58.1436 14.99963166416876
SAUDISAT 5A             
1 43831U 18102A   26205.29050457  .00006847  00000+0  24999-3 0  9998
2 43831  97.3048 266.1597 0009527  13.6340 346.5156 15.28395883421344
SAUDISAT 5B             
1 43833U 18102C   26205.30333631  .00006567  00000+0  23810-3 0  9990
2 43833  97.3157 269.3093 0010308  14.9806 345.1737 15.28635198421462
GAOFEN-10R              
1 44622U 19066A   26205.32963306  .00001310  00000+0  16762-3 0  9996
2 44622  98.0520 159.1832 0006322  27.8832 332.2719 14.83074136367882
CARTOSAT-3              
1 44804U 19081A   26205.30457900  .00002842  00000+0  13793-3 0  9993
2 44804  97.4288 266.5686 0012158  30.0636 330.1294 15.19231268369103
GAOFEN-12 01            
1 44819U 19082A   26205.32029869  .00000429  00000+0  62720-4 0  9995
2 44819  97.8115 210.7220 0000618  80.9701 279.1581 14.80485598359588
CSG-1                   
1 44873U 19092A   26205.24964580  .00000452  00000+0  63341-4 0  9991
2 44873  97.8900  28.3179 0001481  94.7956 265.3426 14.82163029356968
NEMO-HD                 
1 46277U 20061F   26205.30732535  .00014076  00000+0  29723-3 0  9991
2 46277  97.1900 266.8981 0001169 121.1805 238.9559 15.45296596327712
SENTINEL-6A             
1 46984U 20086A   26204.93732250 -.00000052  00000+0  40373-4 0  9990
2 46984  66.0410  58.7221 0007777 269.5572  90.4552 12.80930300265036
CAS500-1                
1 47932U 21022A   26205.31987225  .00008786  00000+0  40889-3 0  9994
2 47932  97.3854  99.8122 0006037 140.9472 219.2200 15.20155013296407
GAOFEN-12 02            
1 48079U 21026A   26205.26776509  .00000413  00000+0  61157-4 0  9997
2 48079  97.9947 203.3004 0006231 109.0834 251.1053 14.80321817287249
PLEIADES NEO 3          
1 48268U 21034A   26204.51810853  .00001151  00000+0  15281-3 0  9990
2 48268  97.8942 278.7624 0001349 101.3678 258.7687 14.81670344283035
PLEIADES NEO 4          
1 49070U 21073E   26204.68690250  .00001009  00000+0  13483-3 0  9994
2 49070  97.8935 278.9245 0001391  97.5672 262.5699 14.81675971266776
LANDSAT 9               
1 49260U 21088A   26205.20964778  .00000319  00000+0  80893-4 0  9992
2 49260  98.2262 274.9353 0001084  94.9707 265.1615 14.57100530256391
CSG-2                   
1 51444U 22008A   26205.28339617  .00000639  00000+0  86772-4 0  9995
2 51444  97.8905  28.3448 0001571  88.6932 271.4461 14.82152377242088
GAOFEN-12 03            
1 52912U 22069A   26205.30395309  .00000705  00000+0  99724-4 0  9991
2 52912  97.8229  92.2302 0002232  62.9767 297.1673 14.80085625220101
SWOT                    
1 54754U 22173A   26205.28734516  .00000074  00000+0  51734-4 0  9995
2 54754  77.6120 345.2242 0000215  75.1936 284.9240 14.00169712184341
GAOFEN-12 04            
1 57654U 23123A   26205.32548049  .00001058  00000+0  14749-3 0  9999
2 57654  97.9098 122.7852 0002979  30.6180 329.5205 14.79789524158122
PARS 1                  
1 59065U 24039Q   26205.27020764  .00014713  00000+0  29832-3 0  9998
2 59065  97.4845 187.3833 0008519 354.5776   5.5380 15.46451773134379
RESURS-P 4              
1 59371U 24061A   26205.29201615  .00003842  00000+0  12555-3 0  9996
2 59371  97.2758 152.5522 0003160  76.8374 283.3221 15.32323483129447
LEGION 1                
1 59625U 24081A   26205.23663023  .00004622  00000+0  23790-3 0  9999
2 59625  97.5004 282.7008 0008048 232.2545 127.7959 15.16892174123150
LEGION 2                
1 59626U 24081B   26205.26714278  .00003970  00000+0  20482-3 0  9992
2 59626  97.5004 282.8276 0010968 199.3198 160.7621 15.16872899123166
ALOS-4 (DAICHI-4)       
1 60182U 24123A   26204.88315887  .00001340  00000+0  18622-3 0  9990
2 60182  97.9222 301.5322 0001577  97.9588 262.1803 14.79477813111301
LEGION 3                
1 60452U 24146A   26205.23423790  .00004259  00000+0  23329-3 0  9990
2 60452  44.9997 191.9365 0007176  25.0906 335.0320 15.15699047107649
LEGION 4                
1 60453U 24146B   26205.23377657  .00004325  00000+0  23640-3 0  9991
2 60453  45.0020 283.8063 0009698 168.9882 191.1210 15.15735410106492
SENTINEL-2C             
1 60989U 24157A   26205.16557317  .00000092  00000+0  51849-4 0  9992
2 60989  98.5677 279.4215 0001066 109.2521 250.8778 14.30817684 98274
IONOSFERA-M 1           
1 61735U 24199A   26205.25547116  .00000031  00000+0  33655-4 0  9992
2 61735  98.7123  78.0277 0001998  60.5193 299.6184 14.22760445132972
